{
"type": "FeatureCollection",
"name": "ILLEGAL DUMPS",
"crs": { "type": "name", "properties": { "name": "urn:ogc:def:crs:EPSG::32736" } },
"features": [
{ "type": "Feature", "properties": { "fid": 1.0, "id": 1, "site name": "DS 1", "waste volu": 4, "severenity": 5, "longtode": 284749.58423203201, "LATITUDE": 8020635, "Z_score": 1.008406615679575, "p_value": 0.31499999761581399, "p_fdr": 0.46286206718148898 }, "geometry": { "type": "Point", "coordinates": [ 284749.584232032008003, 8020634.654355092905462 ] } },
{ "type": "Feature", "properties": { "fid": 2.0, "id": 2, "site name": "DS2", "waste volu": 3, "severenity": 4, "longtode": 289454.53960791428, "LATITUDE": 8022619, "Z_score": 0.64491120770205201, "p_value": 0.34900000691413902, "p_fdr": 0.46286206718148898 }, "geometry": { "type": "Point", "coordinates": [ 289454.539607914281078, 8022619.023915347643197 ] } },
{ "type": "Feature", "properties": { "fid": 3.0, "id": 3, "site name": "DS3", "waste volu": 1, "severenity": 3, "longtode": 289047.12633788097, "LATITUDE": 8022378, "Z_score": 0.64491120770205201, "p_value": 0.24699999392032601, "p_fdr": 0.46286206718148898 }, "geometry": { "type": "Point", "coordinates": [ 289047.126337880967185, 8022377.901775940321386 ] } },
{ "type": "Feature", "properties": { "fid": null, "id": 4, "site name": "DS4", "waste volu": 2, "severenity": 4, "longtode": 289728.91997344687, "LATITUDE": 8022228, "Z_score": 0.64491120770205201, "p_value": 0.33300000429153398, "p_fdr": 0.46286206718148898 }, "geometry": { "type": "Point", "coordinates": [ 289728.919973446871154, 8022228.239758376963437 ] } },
{ "type": "Feature", "properties": { "fid": 5.0, "id": 5, "site name": "DS5", "waste volu": 3, "severenity": 4, "longtode": 289587.57251241495, "LATITUDE": 8021887, "Z_score": 0.64491120770205201, "p_value": 0.33300000429153398, "p_fdr": 0.46286206718148898 }, "geometry": { "type": "Point", "coordinates": [ 289587.572512414946686, 8021887.34294059406966 ] } },
{ "type": "Feature", "properties": { "fid": 6.0, "id": 6, "site name": "DS6", "waste volu": 1, "severenity": 2, "longtode": 288232.2997978144, "LATITUDE": 8022020, "Z_score": -0.082079608252990002, "p_value": 0.42899999022483798, "p_fdr": 0.46286206718148898 }, "geometry": { "type": "Point", "coordinates": [ 288232.299797814397607, 8022020.375845095142722 ] } },
{ "type": "Feature", "properties": { "fid": 7.0, "id": 7, "site name": "DS7", "waste volu": 1, "severenity": 2, "longtode": 288220.97447619127, "LATITUDE": 8021658, "Z_score": -0.44557501623051199, "p_value": 0.43299999833107, "p_fdr": 0.46286206718148898 }, "geometry": { "type": "Point", "coordinates": [ 288220.974476191273425, 8021658.106244654394686 ] } },
{ "type": "Feature", "properties": { "fid": 8.0, "id": 8, "site name": "DS8", "waste volu": 3, "severenity": 4, "longtode": 286985.11631812062, "LATITUDE": 8021937, "Z_score": -0.44557501623051199, "p_value": 0.22300000488758101, "p_fdr": 0.46286206718148898 }, "geometry": { "type": "Point", "coordinates": [ 286985.116318120621145, 8021937.230279781855643 ] } },
{ "type": "Feature", "properties": { "fid": 9.0, "id": 9, "site name": "DS9", "waste volu": 3, "severenity": 5, "longtode": 288032.75044106337, "LATITUDE": 8021372, "Z_score": -0.082079608252990002, "p_value": 0.25799998641014099, "p_fdr": 0.46286206718148898 }, "geometry": { "type": "Point", "coordinates": [ 288032.75044106337009, 8021371.840435653924942 ] } },
{ "type": "Feature", "properties": { "fid": 10.0, "id": 10, "site name": "DS 10", "waste volu": 2, "severenity": 4, "longtode": 287409.15870121651, "LATITUDE": 8021546, "Z_score": -0.80907042420803199, "p_value": 0.116999998688698, "p_fdr": 0.45337499491870398 }, "geometry": { "type": "Point", "coordinates": [ 287409.158701216510963, 8021546.446122811175883 ] } },
{ "type": "Feature", "properties": { "fid": 11.0, "id": 11, "site name": "DS11", "waste volu": 1, "severenity": 3, "longtode": 287001.7454311832, "LATITUDE": 8021497, "Z_score": 0.28141579972453301, "p_value": 0.38199999928474399, "p_fdr": 0.46286206718148898 }, "geometry": { "type": "Point", "coordinates": [ 287001.74543118319707, 8021496.5587836233899 ] } },
{ "type": "Feature", "properties": { "fid": 12.0, "id": 12, "site name": "DS12", "waste volu": 2, "severenity": 4, "longtode": 286494.55748277443, "LATITUDE": 8021704, "Z_score": 1.008406615679575, "p_value": 0.22400000691413899, "p_fdr": 0.46286206718148898 }, "geometry": { "type": "Point", "coordinates": [ 286494.557482774427626, 8021704.422696905210614 ] } },
{ "type": "Feature", "properties": { "fid": 13.0, "id": 13, "site name": "DS13", "waste volu": 3, "severenity": 5, "longtode": 288914.0934333803, "LATITUDE": 8021264, "Z_score": 0.28141579972453301, "p_value": 0.404000014066696, "p_fdr": 0.46286206718148898 }, "geometry": { "type": "Point", "coordinates": [ 288914.093433380301576, 8021263.751200746744871 ] } },
{ "type": "Feature", "properties": { "fid": 14.0, "id": 14, "site name": "NDS14", "waste volu": 1, "severenity": 2, "longtode": 287941.29031921917, "LATITUDE": 8020790, "Z_score": 0.28141579972453301, "p_value": 0.279000014066696, "p_fdr": 0.46286206718148898 }, "geometry": { "type": "Point", "coordinates": [ 287941.290319219173398, 8020789.821478463709354 ] } },
{ "type": "Feature", "properties": { "fid": 15.0, "id": 15, "site name": "DS15", "waste volu": 2, "severenity": 5, "longtode": 288737.08964194299, "LATITUDE": 8020910, "Z_score": 0.64491120770205201, "p_value": 0.47600001096725503, "p_fdr": 0.49186667799949602 }, "geometry": { "type": "Point", "coordinates": [ 288737.089641942991875, 8020910.408817650750279 ] } },
{ "type": "Feature", "properties": { "fid": 16.0, "id": 16, "site name": "DS16", "waste volu": 3, "severenity": 5, "longtode": 288431.84915456537, "LATITUDE": 8020156, "Z_score": 0.28141579972453301, "p_value": 0.384999990463257, "p_fdr": 0.46286206718148898 }, "geometry": { "type": "Point", "coordinates": [ 288431.849154565366916, 8020155.517077805474401 ] } },
{ "type": "Feature", "properties": { "fid": 17.0, "id": 17, "site name": "DS17", "waste volu": 2, "severenity": 4, "longtode": 286727.36506565061, "LATITUDE": 8020499, "Z_score": -0.44557501623051199, "p_value": 0.221000000834465, "p_fdr": 0.46286206718148898 }, "geometry": { "type": "Point", "coordinates": [ 286727.365065650606994, 8020498.811999868601561 ] } },
{ "type": "Feature", "properties": { "fid": 18.0, "id": 18, "site name": "DS18", "waste volu": 3, "severenity": 4, "longtode": 286328.26635214861, "LATITUDE": 8021097, "Z_score": 1.008406615679575, "p_value": 0.22699999809265101, "p_fdr": 0.46286206718148898 }, "geometry": { "type": "Point", "coordinates": [ 286328.266352148610167, 8021097.460070121102035 ] } },
{ "type": "Feature", "properties": { "fid": 19.0, "id": 19, "site name": "DS19", "waste volu": 2, "severenity": 4, "longtode": 286278.37901296082, "LATITUDE": 8020042, "Z_score": -0.082079608252990002, "p_value": 0.34999999403953602, "p_fdr": 0.46286206718148898 }, "geometry": { "type": "Point", "coordinates": [ 286278.379012960824184, 8020041.511390646919608 ] } },
{ "type": "Feature", "properties": { "fid": 20.0, "id": 20, "site name": "DS20", "waste volu": 1, "severenity": 2, "longtode": 287508.93337959202, "LATITUDE": 8019800, "Z_score": -1.1725658321855541, "p_value": 0.158999994397163, "p_fdr": 0.46286206718148898 }, "geometry": { "type": "Point", "coordinates": [ 287508.933379592024721, 8019800.389251239597797 ] } },
{ "type": "Feature", "properties": { "fid": 21.0, "id": 21, "site name": "DS21", "waste volu": 1, "severenity": 3, "longtode": 287784.53906674788, "LATITUDE": 8019029, "Z_score": -1.1725658321855541, "p_value": 0.108999997377396, "p_fdr": 0.45337499491870398 }, "geometry": { "type": "Point", "coordinates": [ 287784.539066747878678, 8019028.920937297865748 ] } },
{ "type": "Feature", "properties": { "fid": 22.0, "id": 22, "site name": "DS22", "waste volu": 3, "severenity": 3, "longtode": 286220.17711724178, "LATITUDE": 8020765, "Z_score": 0.28141579972453301, "p_value": 0.393999993801117, "p_fdr": 0.46286206718148898 }, "geometry": { "type": "Point", "coordinates": [ 286220.177117241779342, 8020764.877808869816363 ] } },
{ "type": "Feature", "properties": { "fid": 23.0, "id": 23, "site name": "DS23", "waste volu": 4, "severenity": 5, "longtode": 286702.42139605671, "LATITUDE": 8019958, "Z_score": -0.80907042420803199, "p_value": 0.075000002980232003, "p_fdr": 0.38750001539786699 }, "geometry": { "type": "Point", "coordinates": [ 286702.421396056714002, 8019958.365825334563851 ] } },
{ "type": "Feature", "properties": { "fid": 24.0, "id": 24, "site name": "DS24", "waste volu": 2, "severenity": 2, "longtode": 286403.09736093023, "LATITUDE": 8019692, "Z_score": -0.80907042420803199, "p_value": 0.26600000262260398, "p_fdr": 0.46286206718148898 }, "geometry": { "type": "Point", "coordinates": [ 286403.097360930230934, 8019692.300016333349049 ] } },
{ "type": "Feature", "properties": { "fid": 25.0, "id": 25, "site name": "DS25", "waste volu": 2, "severenity": 4, "longtode": 286810.51063096349, "LATITUDE": 8019260, "Z_score": -1.8995566481405961, "p_value": 0.013000000268221, "p_fdr": 0.13433333610494899 }, "geometry": { "type": "Point", "coordinates": [ 286810.510630963486619, 8019259.943076705560088 ] } },
{ "type": "Feature", "properties": { "fid": 26.0, "id": 26, "site name": "DS26", "waste volu": 2, "severenity": 4, "longtode": 285405.35057717521, "LATITUDE": 8019958, "Z_score": 0.28141579972453301, "p_value": 0.49399998784065202, "p_fdr": 0.49399998784065202 }, "geometry": { "type": "Point", "coordinates": [ 285405.350577175209764, 8019958.365825334563851 ] } },
{ "type": "Feature", "properties": { "fid": 27.0, "id": 27, "site name": "DS27", "waste volu": 1, "severenity": 2, "longtode": 286328.26635214861, "LATITUDE": 8019168, "Z_score": -1.1725658321855541, "p_value": 0.168999999761581, "p_fdr": 0.46286206718148898 }, "geometry": { "type": "Point", "coordinates": [ 286328.266352148610167, 8019168.482954861596227 ] } },
{ "type": "Feature", "properties": { "fid": 28.0, "id": 28, "site name": "DS28", "waste volu": 1, "severenity": 3, "longtode": 286951.85809199547, "LATITUDE": 8018695, "Z_score": -2.2630520561181182, "p_value": 0.012000000104308, "p_fdr": 0.13433333610494899 }, "geometry": { "type": "Point", "coordinates": [ 286951.858091995469294, 8018694.553232577629387 ] } },
{ "type": "Feature", "properties": { "fid": 29.0, "id": 29, "site name": "DS29", "waste volu": 1, "severenity": 2, "longtode": 287567.13527531107, "LATITUDE": 8018595, "Z_score": -2.2630520561181182, "p_value": 0.019999999552965001, "p_fdr": 0.15499999653547999 }, "geometry": { "type": "Point", "coordinates": [ 287567.135275311069563, 8018594.778554202988744 ] } },
{ "type": "Feature", "properties": { "fid": 30.0, "id": 30, "site name": "DS30", "waste volu": 1, "severenity": 3, "longtode": 287084.89099649613, "LATITUDE": 8018146, "Z_score": -2.2630520561181182, "p_value": 0.013000000268221, "p_fdr": 0.13433333610494899 }, "geometry": { "type": "Point", "coordinates": [ 287084.890996496134903, 8018145.792501512914896 ] } },
{ "type": "Feature", "properties": { "fid": 31.0, "id": 31, "site name": "DS31", "waste volu": 5, "severenity": 5, "longtode": 286586.01760461862, "LATITUDE": 8017722, "Z_score": -1.1725658321855541, "p_value": 0.032999999821186003, "p_fdr": 0.204599998891354 }, "geometry": { "type": "Point", "coordinates": [ 286662.325918031448964, 8017730.228819906711578 ] } }
]
}
