{
"type": "FeatureCollection",
"name": "BOUNDARY HIGHFIELDS",
"crs": { "type": "name", "properties": { "name": "urn:ogc:def:crs:EPSG::20936" } },
"features": [
{ "type": "Feature", "properties": { "id": 1, "POLYGON": "55" }, "geometry": { "type": "MultiPolygon", "coordinates": [ [ [ [ 284433.130354880471714, 8020792.843095396645367 ], [ 284827.231870173302013, 8021018.855507928878069 ], [ 285196.380452897981741, 8021261.01374183781445 ], [ 285598.403489335323684, 8021519.947375713847578 ], [ 286048.580804121564142, 8021910.788002766668797 ], [ 286475.765790308592841, 8022137.133153310976923 ], [ 286812.882305360166356, 8022288.589974628761411 ], [ 287604.729570232797414, 8022412.084115947596729 ], [ 288537.025666550849564, 8022537.04899313673377 ], [ 288865.461277854628861, 8022729.439165051095188 ], [ 289598.538923482992686, 8022942.559376507997513 ], [ 290109.876233938033693, 8023030.116261725313962 ], [ 290184.752129360218532, 8022981.637438883073628 ], [ 289713.886127709818538, 8022196.486384069547057 ], [ 289167.573350102407858, 8021517.296883316710591 ], [ 288858.837795474857558, 8021029.515533547848463 ], [ 288714.88871373666916, 8020584.559744099155068 ], [ 288300.381467043422163, 8019947.856818387284875 ], [ 287952.335136602341663, 8019279.033009896986187 ], [ 287618.535807768523227, 8018823.8519256869331 ], [ 287291.595589416101575, 8018500.115902731195092 ], [ 286938.911852069431916, 8018266.415220865048468 ], [ 286686.060678442125209, 8017968.107058967463672 ], [ 286572.116015301435255, 8017810.877864729613066 ], [ 286448.758018197957426, 8017760.280502773821354 ], [ 286157.18569425214082, 8017987.010248592123389 ], [ 286088.616290437988937, 8018216.159035412594676 ], [ 286109.478159576887265, 8018577.650157874450088 ], [ 286230.43902914278442, 8018849.914073046296835 ], [ 286275.196400715212803, 8019293.783974945545197 ], [ 286121.710937796684448, 8019735.516327458433807 ], [ 285473.930538459331729, 8020048.723962132818997 ], [ 284625.276958332164213, 8020597.86130066215992 ], [ 284400.535426667134743, 8020751.429162619635463 ], [ 284433.130354880471714, 8020792.843095396645367 ] ] ] ] } }
]
}
